satname,norad_id,inclination_deg,eccentricity,mean_motion_rev_per_day,perigee_km,apogee_km,l1,l2
STARLINK-1008,44714,53.0528,0.00015,15.06401287,546.1688117794274,548.2464151634695,1 44714U 19074B   25264.58667883  .00000250  00000+0  35665-4 0  9996,2 44714  53.0528 225.7527 0001500  95.2114 264.9046 15.06401287323264
STARLINK-1010,44716,53.0516,0.0009509,15.78247863,329.0209561244492,341.78877003965863,1 44716U 19074D   25264.13497427  .00135698  00000+0  76430-3 0  9993,2 44716  53.0516 176.6799 0009509  58.5104 301.6844 15.78247863323897
STARLINK-1011,44717,53.0499,0.000697,15.6850456,358.4797704159828,367.87716417739284,1 44717U 19074E   25264.58335648  .00060607  00000+0  52630-3 0  9992,2 44717  53.0499 228.3156 0006970  58.6931 100.6696 15.68504560  6000
STARLINK-1012,44718,53.0542,0.0001434,15.063963,546.2298013192285,548.2159945379553,1 44718U 19074F   25264.16649161  .00000813  00000+0  73457-4 0  9999,2 44718  53.0542 227.6392 0001434  92.6847 267.4306 15.06396300323193
STARLINK-1015,44721,53.0443,4.72e-05,16.0038583,273.03548455146665,273.66338487090434,1 44721U 19074J   25264.43059806  .00429246  90526-4  80520-3 0  9994,2 44721  53.0443 162.6579 0000472 253.9470 106.1508 16.00385830324125
STARLINK-1017,44723,53.0525,0.0003851,15.11119333,530.1237425761592,535.44653480738,1 44723U 19074L   25264.58148311  .00043888  00000+0  25907-2 0  9996,2 44723  53.0525 224.2164 0003851  26.9098 333.2092 15.11119333323282
STARLINK-1019,44724,53.0534,0.0001504,15.06395841,546.1827303633727,548.2658790438281,1 44724U 19074M   25264.29549769 -.00000154  00000+0  85795-5 0  9991,2 44724  53.0534 227.0580 0001504  88.4672 271.6490 15.06395841323214
STARLINK-1020,44725,53.0529,0.000132,15.06400196,546.296811296218,548.1251031569254,1 44725U 19074N   25264.23467960  .00002825  00000+0  20845-3 0  9997,2 44725  53.0529 247.3325 0001320  92.4641 267.6499 15.06400196322929
STARLINK-1021,44726,53.0443,0.0001306,15.94143089,289.83219732398993,291.5740983706082,1 44726U 19074P   25264.58335648  .00388790  70434-4  10309-2 0  9997,2 44726  53.0443 167.8548 0001306  10.7452 161.4854 15.94143089  6067
STARLINK-1029,44734,53.0499,0.0004042,15.88027179,305.11201860083656,310.51694177742047,1 44734U 19074X   25264.58335648  .00322299  00000+0  11203-2 0  9999,2 44734  53.0499  91.7582 0004042 121.6933 256.5892 15.88027179  6057
STARLINK-1031,44736,53.0548,0.0008042,15.38100083,446.2352886958415,457.2204433463494,1 44736U 19074Z   25264.36921791  .00113930  00000+0  29564-2 0  9996,2 44736  53.0548 226.3278 0008042  33.1708 326.9798 15.38100083323244
STARLINK-1036,44741,53.0537,0.0001312,15.06397728,546.3099146554077,548.1271279441962,1 44741U 19074AE  25264.39686246  .00000398  00000+0  45634-4 0  9999,2 44741  53.0537 246.6067 0001312  93.1701 266.9438 15.06397728322951
STARLINK-1039,44744,53.0517,0.0005691,15.09369231,534.1901688063008,542.0622595967061,1 44744U 19074AH  25264.39204847  .00019505  00000+0  12221-2 0  9999,2 44744  53.0517 265.9354 0005691 355.2334   4.8601 15.09369231322685
STARLINK-1042,44747,53.048,0.0003396,15.40912804,441.0974274348846,445.73062489185395,1 44747U 19074AL  25264.47214803  .00020764  00000+0  50567-3 0  9999,2 44747  53.0480 181.2409 0003396  39.8597 320.2656 15.40912804323900
STARLINK-1043,44748,53.0547,0.0001152,15.06394447,546.4307750212938,548.0263792502665,1 44748U 19074AM  25264.50191746  .00001761  00000+0  13710-3 0  9999,2 44748  53.0547 266.1349 0001152  79.4060 280.7059 15.06394447322695
STARLINK-1046,44751,53.0546,0.0001611,15.06400127,546.0954951116182,548.3268422915735,1 44751U 19074AQ  25264.45031024  .00000999  00000+0  85925-4 0  9999,2 44751  53.0546 266.3670 0001611  98.0099 262.1073 15.06400127322688
STARLINK-1047,44752,53.07,0.0005221,15.28015651,478.1633658217861,485.32645451238295,1 44752U 19074AR  25264.28904640  .00012098  00000+0  44870-3 0  9990,2 44752  53.0700 214.7281 0005221  59.4647 300.6867 15.28015651323405
STARLINK-1048,44753,53.0539,0.0001476,15.06401822,546.1837931533919,548.2281543992503,1 44753U 19074AS  25264.60879353  .00001528  00000+0  12144-3 0  9994,2 44753  53.0539 225.6529 0001476  90.5498 269.5661 15.06401822323264
STARLINK-1053,44758,53.0428,0.0003385,15.55208285,399.2523150403431,403.8421612695747,1 44758U 19074AX  25264.12299551  .00048618  00000+0  70946-3 0  9997,2 44758  53.0428 200.9495 0003385  78.9688 281.1702 15.55208285323589
STARLINK-1054,44759,53.0449,0.0010217,15.66092738,363.2032167812549,376.992559952143,1 44759U 19074AY  25264.58335648  .00184695  00000+0  17290-2 0  9994,2 44759  53.0449 228.3718 0010217  27.4614 107.7531 15.66092738  5985
STARLINK-1056,44761,53.0424,0.0010318,15.77840262,329.6327870580708,343.48923787659896,1 44761U 19074BA  25264.58335648  .00164196  00000+0  93747-3 0  9993,2 44761  53.0424 217.7571 0010318  49.2947 345.9594 15.77840262  6029
STARLINK-1057,44762,53.0438,0.0001789,15.97034956,281.45859983223545,283.84182949764363,1 44762U 19074BB  25264.58335648  .00407765  79191-4  92399-3 0  9990,2 44762  53.0438 188.5076 0001789  62.7925 200.5151 15.97034956  6019
STARLINK-1060,44765,53.0539,0.0001508,15.36034831,456.81762150840586,458.8793547316227,1 44765U 19074BE  25264.58335648  .01323993  00000+0  33919-1 0  9993,2 44765  53.0539 243.7416 0001508  93.0696   0.4076 15.36034831  5845
STARLINK-1063,44768,53.0528,0.0001437,15.06410802,546.1832837314914,548.1736193922707,1 44768U 19074BH  25264.57194229  .00004256  00000+0  30433-3 0  9990,2 44768  53.0528 265.8189 0001437  87.3935 272.7219 15.06410802322715
STARLINK-1067,44771,53.0538,0.0001326,15.06404657,546.2789856145955,548.1155842669623,1 44771U 19074BL  25264.42820019  .00000759  00000+0  69801-4 0  9997,2 44771  53.0538 266.4649 0001326  86.9352 273.1788 15.06404657322686
STARLINK-1068,44772,53.0531,0.0001446,15.06391398,546.2365127411022,548.2393311685328,1 44772U 19074BM  25264.21994679  .00003529  00000+0  25572-3 0  9993,2 44772  53.0531 247.3999 0001446  85.9178 274.1976 15.06391398322928
STARLINK-1112,44925,53.0537,0.0003243,15.45845298,426.68794250918563,431.1029837647766,1 44925U 20001M   25264.55622464  .00110837  00000+0  22242-2 0  9993,2 44925  53.0537 356.0951 0003243 153.8711 206.2460 15.45845298314779
STARLINK-1114,44927,53.0561,0.0001848,15.0639364,545.9512424751192,548.5108585065809,1 44927U 20001P   25264.52402040  .00000404  00000+0  46027-4 0  9995,2 44927  53.0561  26.0343 0001848  71.1439 288.9750 15.06393640314354
STARLINK-1123,44930,53.0575,0.0001006,15.06354964,546.6528862798286,548.0462941817823,1 44930U 20001S   25264.60515133 -.00006069  00000+0 -38939-3 0  9993,2 44930  53.0575  25.6701 0001006  93.0159 267.0946 15.06354964314366
STARLINK-1144,44933,53.0478,0.0011838,15.50282951,407.85648441099056,423.9420446709164,1 44933U 20001V   25264.48980143  .00115498  00000+0  19798-2 0  9995,2 44933  53.0478 334.8933 0011838 300.7550  59.2292 15.50282951316362
STARLINK-1091,44940,53.0424,0.0005604,15.75575719,339.22688351782745,346.7599264757473,1 44940U 20001AC  25264.58335648  .00210125  00000+0  13206-2 0  9999,2 44940  53.0424 319.9748 0005604 313.8127 104.5574 15.75575719  6017
STARLINK-1094,44941,53.0554,9.65e-05,15.0639577,546.5562249224804,547.8928196962861,1 44941U 20001AD  25264.55167398  .00002698  00000+0  19999-3 0  9992,2 44941  53.0554   5.9087 0000965  97.6624 262.4474 15.06395770314638
STARLINK-1096,44942,52.9931,0.0002416,15.75761307,340.841968565549,344.0893637738427,1 44942U 20001AE  25264.40256745  .00107250  00000+0  67914-3 0  9992,2 44942  52.9931 147.5263 0002416 145.2464 214.8713 15.75761307317662
STARLINK-1122,44949,53.0553,0.0001253,15.06393587,546.3634642922852,548.0989615664457,1 44949U 20001AM  25264.57378576  .00000596  00000+0  58891-4 0  9994,2 44949  53.0553   5.8046 0001253  84.3653 275.7479 15.06393587314631
STARLINK-1066,44954,53.0331,7.2e-05,16.24821086,206.02043295046133,206.96861989026638,1 44954U 20001AS  25264.52707981  .02792060  11944-4  95159-3 0  9998,2 44954  53.0331 283.0323 0000720 249.5563 110.5399 16.24821086315732
STARLINK-1080,44961,53.0552,9.06e-05,15.06398605,546.5883964489522,547.8432703823682,1 44961U 20001AZ  25264.50557776 -.00002400  00000+0 -14231-3 0  9999,2 44961  53.0552 346.1178 0000906  91.3144 268.7949 15.06398605314919
STARLINK-1090,44968,53.0566,0.0001452,15.06397719,546.2129872578771,548.2241105092726,1 44968U 20001BG  25264.50928447  .00003368  00000+0  24487-3 0  9999,2 44968  53.0566 346.1032 0001452  82.8025 277.3129 15.06397719314911
STARLINK-1107,44972,53.0122,0.0008235,15.55297905,395.70393903505374,406.8696500246442,1 44972U 20001BL  25264.54999853  .00096581  00000+0  13879-2 0  9998,2 44972  53.0122 276.2794 0008235  50.2746 309.8988 15.55297905315899
STARLINK-1132,45044,53.0541,0.0001405,15.06406667,546.2181160173541,548.1641332203726,1 45044U 20006A   25264.40239173  .00003603  00000+0  26064-3 0  9995,2 45044  53.0541 306.5803 0001405  89.0141 271.1009 15.06406667311225
STARLINK-1131,45047,53.0557,0.0001333,15.06400456,546.2870115878295,548.1333091407814,1 45047U 20006D   25264.44484647  .00001303  00000+0  10638-3 0  9995,2 45047  53.0557 326.9296 0001333  88.0960 272.0181 15.06400456310944
STARLINK-1134,45048,53.0462,0.0008054,15.23300639,490.3566874069884,501.4293749812359,1 45048U 20006E   25264.45316567  .00012404  00000+0  52886-3 0  9997,2 45048  53.0462 310.1102 0008054   7.8697 352.2424 15.23300639311183
STARLINK-1156,45054,53.0542,0.0001252,15.0639727,546.3528703207094,548.0869796947327,1 45054U 20006L   25264.48163939  .00001598  00000+0  12618-3 0  9991,2 45054  53.0542 326.2279 0001252  85.4485 274.6647 15.06397270310958
STARLINK-1159,45057,53.0557,0.0001326,15.06395974,546.3055942209558,548.1421999308595,1 45057U 20006P   25264.49638826  .00002151  00000+0  16330-3 0  9998,2 45057  53.0557 326.1591 0001326  90.5685 269.5456 15.06395974310965
